{
  "type": "FeatureCollection",
  "features": [
    {
      "type": "Feature",
      "properties": {
        "norad_id": 40796,
        "name": "COSMOS 2251 DEB",
        "group": "cosmos-2251-debris",
        "lat": 12.465505663449218,
        "lon": -30.883119166886157,
        "alt_km": 646.6176743117549,
        "timestamp": "2025-12-07T09:35:10.187583+00:00",
        "meta_object_name": "COSMOS 2251 DEB",
        "meta_object_id": "1993-036BVZ",
        "meta_epoch": "2025-12-06T18:18:30.565728",
        "meta_mean_motion": 14.81574152,
        "meta_eccentricity": 0.00560116,
        "meta_inclination": 74.0115,
        "meta_ra_of_asc_node": 154.0093,
        "meta_arg_of_pericenter": 291.6705,
        "meta_mean_anomaly": 81.9315,
        "meta_ephemeris_type": 0,
        "meta_classification_type": "U",
        "meta_norad_cat_id": 40796,
        "meta_element_set_no": 999,
        "meta_rev_at_epoch": 76070,
        "meta_bstar": 0.0014785564,
        "meta_mean_motion_dot": 0.00011917,
        "meta_mean_motion_ddot": 0,
        "tle_line1": "1 40796U 93036BVZ 25340.76285377  .00011917  00000+0  14786-2 0  9992",
        "tle_line2": "2 40796  74.0115 154.0093 0056011 291.6705  81.9315 14.81574152760706"
      },
      "geometry": {
        "type": "Point",
        "coordinates": [
          -30.883119166886157,
          12.465505663449218
        ]
      }
    },
    {
      "type": "Feature",
      "properties": {
        "norad_id": 40797,
        "name": "COSMOS 2251 DEB",
        "group": "cosmos-2251-debris",
        "lat": 24.384189527272476,
        "lon": 113.94874569958172,
        "alt_km": 484.1693770850434,
        "timestamp": "2025-12-07T09:35:10.187593+00:00",
        "meta_object_name": "COSMOS 2251 DEB",
        "meta_object_id": "1993-036BWA",
        "meta_epoch": "2025-11-19T18:43:16.602528",
        "meta_mean_motion": 15.10509474,
        "meta_eccentricity": 0.00703947,
        "meta_inclination": 73.92,
        "meta_ra_of_asc_node": 143.0892,
        "meta_arg_of_pericenter": 60.6639,
        "meta_mean_anomaly": 300.156,
        "meta_ephemeris_type": 0,
        "meta_classification_type": "U",
        "meta_norad_cat_id": 40797,
        "meta_element_set_no": 999,
        "meta_rev_at_epoch": 64297,
        "meta_bstar": 0.00072810385,
        "meta_mean_motion_dot": 0.00012707,
        "meta_mean_motion_ddot": 0,
        "tle_line1": "1 40797U 93036BWA 25323.78005327  .00012707  00000+0  72810-3 0  9992",
        "tle_line2": "2 40797  73.9200 143.0892 0070394  60.6639 300.1560 15.10509474642979"
      },
      "geometry": {
        "type": "Point",
        "coordinates": [
          113.94874569958172,
          24.384189527272476
        ]
      }
    },
    {
      "type": "Feature",
      "properties": {
        "norad_id": 40799,
        "name": "COSMOS 2251 DEB",
        "group": "cosmos-2251-debris",
        "lat": -43.56066710822198,
        "lon": 93.3222508945589,
        "alt_km": 518.4659028537244,
        "timestamp": "2025-12-07T09:35:10.187603+00:00",
        "meta_object_name": "COSMOS 2251 DEB",
        "meta_object_id": "1993-036BWC",
        "meta_epoch": "2025-12-03T15:56:34.043424",
        "meta_mean_motion": 14.96530915,
        "meta_eccentricity": 0.0118644,
        "meta_inclination": 73.9247,
        "meta_ra_of_asc_node": 116.8388,
        "meta_arg_of_pericenter": 0.7827,
        "meta_mean_anomaly": 359.3519,
        "meta_ephemeris_type": 0,
        "meta_classification_type": "U",
        "meta_norad_cat_id": 40799,
        "meta_element_set_no": 999,
        "meta_rev_at_epoch": 49841,
        "meta_bstar": 0.00050356325,
        "meta_mean_motion_dot": 6.569e-05,
        "meta_mean_motion_ddot": 0,
        "tle_line1": "1 40799U 93036BWC 25337.66428291  .00006569  00000+0  50356-3 0  9995",
        "tle_line2": "2 40799  73.9247 116.8388 0118644   0.7827 359.3519 14.96530915498410"
      },
      "geometry": {
        "type": "Point",
        "coordinates": [
          93.3222508945589,
          -43.56066710822198
        ]
      }
    },
    {
      "type": "Feature",
      "properties": {
        "norad_id": 40802,
        "name": "COSMOS 2251 DEB",
        "group": "cosmos-2251-debris",
        "lat": 8.340534520208008,
        "lon": 165.8937223765569,
        "alt_km": 650.2820483707637,
        "timestamp": "2025-12-07T09:35:10.187613+00:00",
        "meta_object_name": "COSMOS 2251 DEB",
        "meta_object_id": "1993-036BWF",
        "meta_epoch": "2025-12-06T18:55:18.287040",
        "meta_mean_motion": 14.77519468,
        "meta_eccentricity": 0.0063309,
        "meta_inclination": 74.0388,
        "meta_ra_of_asc_node": 164.6871,
        "meta_arg_of_pericenter": 264.6077,
        "meta_mean_anomaly": 94.7873,
        "meta_ephemeris_type": 0,
        "meta_classification_type": "U",
        "meta_norad_cat_id": 40802,
        "meta_element_set_no": 999,
        "meta_rev_at_epoch": 64321,
        "meta_bstar": 0.0011442072,
        "meta_mean_motion_dot": 8.415e-05,
        "meta_mean_motion_ddot": 0,
        "tle_line1": "1 40802U 93036BWF 25340.78840610  .00008415  00000+0  11442-2 0  9994",
        "tle_line2": "2 40802  74.0388 164.6871 0063309 264.6077  94.7873 14.77519468643218"
      },
      "geometry": {
        "type": "Point",
        "coordinates": [
          165.8937223765569,
          8.340534520208008
        ]
      }
    },
    {
      "type": "Feature",
      "properties": {
        "norad_id": 40803,
        "name": "COSMOS 2251 DEB",
        "group": "cosmos-2251-debris",
        "lat": -14.336801508793679,
        "lon": 57.7663442279683,
        "alt_km": 713.6983852370658,
        "timestamp": "2025-12-07T09:35:10.187623+00:00",
        "meta_object_name": "COSMOS 2251 DEB",
        "meta_object_id": "1993-036BWG",
        "meta_epoch": "2025-12-05T22:55:29.451072",
        "meta_mean_motion": 14.51792027,
        "meta_eccentricity": 0.00362816,
        "meta_inclination": 74.0122,
        "meta_ra_of_asc_node": 64.6912,
        "meta_arg_of_pericenter": 281.8159,
        "meta_mean_anomaly": 77.8934,
        "meta_ephemeris_type": 0,
        "meta_classification_type": "U",
        "meta_norad_cat_id": 40803,
        "meta_element_set_no": 999,
        "meta_rev_at_epoch": 58654,
        "meta_bstar": 0.00062935795,
        "meta_mean_motion_dot": 2.525e-05,
        "meta_mean_motion_ddot": 0,
        "tle_line1": "1 40803U 93036BWG 25339.95520198  .00002525  00000+0  62936-3 0  9999",
        "tle_line2": "2 40803  74.0122  64.6912 0036281 281.8159  77.8934 14.51792027586549"
      },
      "geometry": {
        "type": "Point",
        "coordinates": [
          57.7663442279683,
          -14.336801508793679
        ]
      }
    },
    {
      "type": "Feature",
      "properties": {
        "norad_id": 40808,
        "name": "COSMOS 2251 DEB",
        "group": "cosmos-2251-debris",
        "lat": -37.9101389813127,
        "lon": 142.90206445475226,
        "alt_km": 679.9527866555618,
        "timestamp": "2025-12-07T09:35:10.187633+00:00",
        "meta_object_name": "COSMOS 2251 DEB",
        "meta_object_id": "1993-036BWM",
        "meta_epoch": "2025-12-05T18:34:34.386240",
        "meta_mean_motion": 14.67285341,
        "meta_eccentricity": 0.0009965,
        "meta_inclination": 74.0402,
        "meta_ra_of_asc_node": 158.9151,
        "meta_arg_of_pericenter": 196.0709,
        "meta_mean_anomaly": 181.8049,
        "meta_ephemeris_type": 0,
        "meta_classification_type": "U",
        "meta_norad_cat_id": 40808,
        "meta_element_set_no": 999,
        "meta_rev_at_epoch": 63517,
        "meta_bstar": 0.0028356458,
        "meta_mean_motion_dot": 0.00016013,
        "meta_mean_motion_ddot": 0,
        "tle_line1": "1 40808U 93036BWM 25339.77400910  .00016013  00000+0  28356-2 0  9997",
        "tle_line2": "2 40808  74.0402 158.9151 0009965 196.0709 181.8049 14.67285341635174"
      },
      "geometry": {
        "type": "Point",
        "coordinates": [
          142.90206445475226,
          -37.9101389813127
        ]
      }
    },
    {
      "type": "Feature",
      "properties": {
        "norad_id": 40810,
        "name": "COSMOS 2251 DEB",
        "group": "cosmos-2251-debris",
        "lat": 42.60339110243202,
        "lon": 100.17227443389628,
        "alt_km": 706.7644205657743,
        "timestamp": "2025-12-07T09:35:10.187643+00:00",
        "meta_object_name": "COSMOS 2251 DEB",
        "meta_object_id": "1993-036BWP",
        "meta_epoch": "2025-12-02T07:34:18.151104",
        "meta_mean_motion": 14.58589191,
        "meta_eccentricity": 0.00187807,
        "meta_inclination": 74.0355,
        "meta_ra_of_asc_node": 94.5842,
        "meta_arg_of_pericenter": 246.5096,
        "meta_mean_anomaly": 113.4096,
        "meta_ephemeris_type": 0,
        "meta_classification_type": "U",
        "meta_norad_cat_id": 40810,
        "meta_element_set_no": 999,
        "meta_rev_at_epoch": 61531,
        "meta_bstar": 0.001131408,
        "meta_mean_motion_dot": 5.252e-05,
        "meta_mean_motion_ddot": 0,
        "tle_line1": "1 40810U 93036BWP 25336.31548786  .00005252  00000+0  11314-2 0  9990",
        "tle_line2": "2 40810  74.0355  94.5842 0018780 246.5096 113.4096 14.58589191615318"
      },
      "geometry": {
        "type": "Point",
        "coordinates": [
          100.17227443389628,
          42.60339110243202
        ]
      }
    }
  ]
}